NORAD_CAT_ID,OBJECT_NAME,OBJECT_TYPE,EPOCH,MEAN_MOTION,ECCENTRICITY,INCLINATION,RA_OF_ASC_NODE,ARG_OF_PERICENTER,MEAN_ANOMALY,BSTAR,MEAN_MOTION_DOT,MEAN_MOTION_DDOT,TLE_LINE0,TLE_LINE1,TLE_LINE2,SEMIMAJOR_AXIS,PERIOD,APOGEE,PERIGEE,DECAYED
52337.0,STARLINK-3797,PAYLOAD,2023-11-22 02:50:07,15.08823279,0.000141,53.2192,13.6195,97.4652,262.65,0.00036949,5.595e-05,0.0,0 STARLINK-3797,1 52337U 22045G   23326.11814125  .00005595  00000-0  36949-3 0  9990,2 52337  53.2192  13.6195 0001410  97.4652 262.6500 15.08823279 89045,6917.931,95.439,540.772,538.821,0.0
52337.0,STARLINK-3797,PAYLOAD,2023-11-22 10:47:02,15.08846488,0.0001463,53.2179,12.1311,95.5123,264.6036,0.00019122,2.757e-05,0.0,0 STARLINK-3797,1 52337U 22045G   23326.44932990  .00002757  00000-0  19122-3 0  9998,2 52337  53.2179  12.1311 0001463  95.5123 264.6036 15.08846488 89092,6917.861,95.437,540.738,538.713,0.0
52337.0,STARLINK-3797,PAYLOAD,2023-11-23 10:37:50,15.0883861,0.000169,53.2184,7.6726,80.469,279.6493,5.3431e-05,5.62e-06,0.0,0 STARLINK-3797,1 52337U 22045G   23327.44294051  .00000562  00000-0  53431-4 0  9992,2 52337  53.2184   7.6726 0001690  80.4690 279.6493 15.08838610 89249,6917.885,95.438,540.919,538.581,0.0
52337.0,STARLINK-3797,PAYLOAD,2023-11-23 12:13:12,15.08843489,0.0001517,53.2172,7.3734,89.1583,270.9583,0.00011651,1.567e-05,0.0,0 STARLINK-3797,1 52337U 22045G   23327.50917705  .00001567  00000-0  11651-3 0  9990,2 52337  53.2172   7.3734 0001517  89.1583 270.9583 15.08843489 89252,6917.87,95.437,540.784,538.685,0.0
52337.0,STARLINK-3797,PAYLOAD,2023-11-24 10:28:37,15.08837461,0.0001902,53.2184,3.2094,80.4776,279.6431,3.1628e-06,-2.38e-06,0.0,0 STARLINK-3797,1 52337U 22045G   23328.43654519 -.00000238  00000-0  31628-5 0  9997,2 52337  53.2184   3.2094 0001902  80.4776 279.6431 15.08837461 89391,6917.888,95.438,541.069,538.437,0.0
52337.0,STARLINK-3797,PAYLOAD,2023-11-25 02:22:28,15.08841973,0.0001665,53.2178,0.2329,91.1872,268.9311,0.00015313,2.15e-05,0.0,0 STARLINK-3797,1 52337U 22045G   23329.09894603  .00002150  00000-0  15313-3 0  9995,2 52337  53.2178   0.2329 0001665  91.1872 268.9311 15.08841973 89496,6917.874,95.437,540.891,538.588,0.0
52337.0,STARLINK-3797,PAYLOAD,2023-11-25 08:44:01,15.08850558,0.0001673,53.2175,359.0465,89.5456,270.5728,0.00029784,4.457e-05,0.0,0 STARLINK-3797,1 52337U 22045G   23329.36390302  .00004457  00000-0  29784-3 0  9991,2 52337  53.2175 359.0465 0001673  89.5456 270.5728 15.08850558 89532,6917.848,95.437,540.87,538.556,0.0
52337.0,STARLINK-3797,PAYLOAD,2023-11-26 08:34:47,15.08861458,0.0001713,53.2173,354.5854,101.9457,258.1727,0.00038156,5.793e-05,0.0,0 STARLINK-3797,1 52337U 22045G   23330.35749351  .00005793  00000-0  38156-3 0  9991,2 52337  53.2173 354.5854 0001713 101.9457 258.1727 15.08861458 89685,6917.815,95.436,540.865,538.495,0.0
52337.0,STARLINK-3797,PAYLOAD,2023-11-27 02:04:03,15.08809749,0.0001471,53.2177,351.3168,84.2568,275.8591,-0.00060936,-9.965e-05,0.0,0 STARLINK-3797,1 52337U 22045G   23331.08615446 -.00009965  00000-0 -60936-3 0  9997,2 52337  53.2177 351.3168 0001471  84.2568 275.8591 15.08809749 89791,6917.973,95.439,540.855,538.82,0.0
52337.0,STARLINK-3797,PAYLOAD,2023-11-27 08:25:37,15.08808716,0.0001662,53.2173,350.1265,90.1211,269.9972,-0.00043273,-7.162e-05,0.0,0 STARLINK-3797,1 52337U 22045G   23331.35112392 -.00007162  00000-0 -43273-3 0  9991,2 52337  53.2173 350.1265 0001662  90.1211 269.9972 15.08808716 89830,6917.976,95.44,540.991,538.691,0.0
52337.0,STARLINK-3797,PAYLOAD,2023-11-28 01:54:51,15.08830061,0.0001717,53.2175,346.8582,89.3736,270.7452,-1.2751e-05,-4.91e-06,0.0,0 STARLINK-3797,1 52337U 22045G   23332.07975958 -.00000491  00000-0 -12751-4 0  9992,2 52337  53.2175 346.8582 0001717  89.3736 270.7452 15.08830061 89942,6917.911,95.438,540.964,538.588,0.0
52337.0,STARLINK-3797,PAYLOAD,2023-11-28 08:16:23,15.08850096,0.0001763,53.2187,345.6708,92.7322,267.3872,0.00027979,4.169e-05,0.0,0 STARLINK-3797,1 52337U 22045G   23332.34471231  .00004169  00000-0  27979-3 0  9998,2 52337  53.2187 345.6708 0001763  92.7322 267.3872 15.08850096 89984,6917.85,95.437,540.934,538.495,0.0
52337.0,STARLINK-3797,PAYLOAD,2023-11-29 09:42:33,15.08850741,0.0001901,53.2194,340.908,87.9125,272.2084,0.0005696,8.791e-05,0.0,0 STARLINK-3797,1 52337U 22045G   23333.40455442  .00008791  00000-0  56960-3 0  9999,2 52337  53.2194 340.9080 0001901  87.9125 272.2084 15.08850741 90141,6917.848,95.437,541.028,538.397,0.0
52337.0,STARLINK-3797,PAYLOAD,2023-11-30 09:33:20,15.08852745,0.0002081,53.2189,336.4439,95.9622,264.1607,5.2547e-05,5.48e-06,0.0,0 STARLINK-3797,1 52337U 22045G   23334.39814982  .00000548  00000-0  52547-4 0  9996,2 52337  53.2189 336.4439 0002081  95.9622 264.1607 15.08852745 90297,6917.841,95.437,541.146,538.267,0.0
52337.0,STARLINK-3797,PAYLOAD,2023-12-01 04:37:58,15.08843317,0.0002118,53.2186,332.88,86.5265,273.597,-5.3203e-05,-1.135e-05,0.0,0 STARLINK-3797,1 52337U 22045G   23335.19303567 -.00001135  00000-0 -53203-4 0  9992,2 52337  53.2186 332.8800 0002118  86.5265 273.5970 15.08843317 90412,6917.87,95.437,541.2,538.27,0.0
52337.0,STARLINK-3797,PAYLOAD,2023-12-01 09:24:07,15.0884993,0.0001865,53.2185,331.9824,106.1067,254.013,3.6008e-05,2.85e-06,0.0,0 STARLINK-3797,1 52337U 22045G   23335.39174784  .00000285  00000-0  36008-4 0  9998,2 52337  53.2185 331.9824 0001865 106.1067 254.0130 15.08849930 90446,6917.85,95.437,541.005,538.425,0.0
52337.0,STARLINK-3797,PAYLOAD,2023-12-02 06:04:07,15.08860338,0.000236,53.2183,328.1188,72.6258,287.4992,0.00032541,4.897e-05,0.0,0 STARLINK-3797,1 52337U 22045G   23336.25286577  .00004897  00000-0  32541-3 0  9998,2 52337  53.2183 328.1188 0002360  72.6258 287.4992 15.08860338 90570,6917.818,95.436,541.316,538.051,0.0
52337.0,STARLINK-3797,PAYLOAD,2023-12-03 02:44:09,15.08826541,0.0002046,53.2193,324.2519,86.6978,273.4249,-0.0001993,-3.458e-05,0.0,0 STARLINK-3797,1 52337U 22045G   23337.11400326 -.00003458  00000-0 -19930-3 0  9995,2 52337  53.2193 324.2519 0002046  86.6978 273.4249 15.08826541 90704,6917.922,95.438,541.202,538.371,0.0
52337.0,STARLINK-3797,PAYLOAD,2023-12-03 09:05:43,15.08815276,0.0001888,53.2187,323.0637,74.9541,285.166,-0.00027973,-4.734e-05,0.0,0 STARLINK-3797,1 52337U 22045G   23337.37897428 -.00004734  00000-0 -27973-3 0  9990,2 52337  53.2187 323.0637 0001888  74.9541 285.1660 15.08815276 90748,6917.956,95.439,541.127,538.515,0.0
52337.0,STARLINK-3797,PAYLOAD,2023-12-04 04:10:20,15.08832295,0.0002307,53.218,319.5024,66.3487,293.7747,-0.00010789,-2.005e-05,0.0,0 STARLINK-3797,1 52337U 22045G   23338.17385154 -.00002005  00000-0 -10789-3 0  9993,2 52337  53.2180 319.5024 0002307  66.3487 293.7747 15.08832295 90866,6917.904,95.438,541.365,538.173,0.0
52337.0,STARLINK-3797,PAYLOAD,2023-12-04 08:56:30,15.08840331,0.0001811,53.2176,318.6053,89.4518,270.6682,0.00024234,3.571e-05,0.0,0 STARLINK-3797,1 52337U 22045G   23338.37257015  .00003571  00000-0  24234-3 0  9996,2 52337  53.2176 318.6053 0001811  89.4518 270.6682 15.08840331 90898,6917.879,95.438,540.997,538.492,0.0
52337.0,STARLINK-3797,PAYLOAD,2023-12-05 04:01:07,15.08855916,0.0002153,53.218,315.0396,69.0413,291.081,0.00065184,0.00010106,0.0,0 STARLINK-3797,1 52337U 22045G   23339.16744453  .00010106  00000-0  65184-3 0  9992,2 52337  53.2180 315.0396 0002153  69.0413 291.0810 15.08855916 91012,6917.832,95.437,541.186,538.207,0.0
52337.0,STARLINK-3797,PAYLOAD,2023-12-05 05:36:29,15.08866312,0.0002004,53.218,314.7402,74.0281,286.0931,0.00079402,0.0001238,0.0,0 STARLINK-3797,1 52337U 22045G   23339.23367835  .00012380  00000-0  79402-3 0  9999,2 52337  53.2180 314.7402 0002004  74.0281 286.0931 15.08866312 91021,6917.8,95.436,541.051,538.279,0.0
52337.0,STARLINK-3797,PAYLOAD,2023-12-06 03:51:53,15.08855612,0.0001917,53.2177,310.5785,91.6577,268.4635,-3.9933e-05,-9.24e-06,0.0,0 STARLINK-3797,1 52337U 22045G   23340.16103276 -.00000924  00000-0 -39933-4 0  9999,2 52337  53.2177 310.5785 0001917  91.6577 268.4635 15.08855612 91161,6917.833,95.437,541.024,538.372,0.0
52337.0,STARLINK-3797,PAYLOAD,2023-12-06 21:21:08,15.08836821,0.000208,53.2178,307.3089,97.3358,262.787,-0.00021039,-3.635e-05,0.0,0 STARLINK-3797,1 52337U 22045G   23340.88967698 -.00003635  00000-0 -21039-3 0  9993,2 52337  53.2178 307.3089 0002080  97.3358 262.7870 15.08836821 91276,6917.89,95.438,541.194,538.316,0.0
52337.0,STARLINK-3797,PAYLOAD,2023-12-07 05:18:04,15.08842963,0.0001985,53.2187,305.8183,89.9199,270.2021,-0.0001807,-3.163e-05,0.0,0 STARLINK-3797,1 52337U 22045G   23341.22088727 -.00003163  00000-0 -18070-3 0  9996,2 52337  53.2187 305.8183 0001985  89.9199 270.2021 15.08842963 91329,6917.871,95.437,541.11,538.363,0.0
52337.0,STARLINK-3797,PAYLOAD,2023-12-07 06:53:27,15.08843733,0.0002023,53.2188,305.5206,94.1988,265.9236,-0.00016816,-2.964e-05,0.0,0 STARLINK-3797,1 52337U 22045G   23341.28712602 -.00002964  00000-0 -16816-3 0  9992,2 52337  53.2188 305.5206 0002023  94.1988 265.9236 15.08843733 91337,6917.869,95.437,541.133,538.334,0.0
52337.0,STARLINK-3797,PAYLOAD,2023-12-08 05:08:51,15.08825991,0.0002013,53.2185,301.3569,88.6102,271.5121,0.00037276,5.647e-05,0.0,0 STARLINK-3797,1 52337U 22045G   23342.21448491  .00005647  00000-0  37276-3 0  9990,2 52337  53.2185 301.3569 0002013  88.6102 271.5121 15.08825991 91472,6917.923,95.438,541.181,538.396,0.0
52337.0,STARLINK-3797,PAYLOAD,2023-12-09 03:24:15,15.08840172,0.0001968,53.2185,297.1939,82.6606,277.4609,0.00014566,2.031e-05,0.0,0 STARLINK-3797,1 52337U 22045G   23343.14184418  .00002031  00000-0  14566-3 0  9990,2 52337  53.2185 297.1939 0001968  82.6606 277.4609 15.08840172 91616,6917.88,95.438,541.106,538.383,0.0
52337.0,STARLINK-3797,PAYLOAD,2023-12-09 06:35:01,15.08844268,0.0001956,53.2185,296.5986,83.848,276.2735,0.0001728,2.463e-05,0.0,0 STARLINK-3797,1 52337U 22045G   23343.27432127  .00002463  00000-0  17280-3 0  9992,2 52337  53.2185 296.5986 0001956  83.8480 276.2735 15.08844268 91630,6917.867,95.437,541.085,538.379,0.0
